     2.100          NAVIGATION                              RINEX VERSION / TYPE
fic2rin                                 12/24/2012 00:16:52 PGM / RUN BY / DATE
                                                            END OF HEADER
13 12 12 23  4  0  0.0  .158113427460D-03 -.284217094304D-11  .000000000000D+00
     .170000000000D+02  .729687500000D+02  .422160441820D-08 -.989719057086D+00
     .366196036339D-05  .484448729549D-02  .444427132607D-05  .515357780075D+04
     .144000000000D+05 -.763684511185D-07 -.279799697020D+01 -.223517417908D-07
     .983655917034D+00  .311187500000D+03  .207069160704D+01 -.812498129523D-08
     .213223167315D-09  .100000000000D+01  .172000000000D+04  .000000000000D+00
     .240000000000D+01  .000000000000D+00 -.111758708954D-07  .170000000000D+02
     .720600000000D+04  .400000000000D+01
14 12 12 23  4  0  0.0  .218637287617D-03  .454747350886D-12  .000000000000D+00
     .430000000000D+02  .656562500000D+02  .438803992233D-08 -.819144573322D+00
     .360794365406D-05  .676215137355D-02  .447221100330D-05  .515368803215D+04
     .144000000000D+05 -.130385160446D-07 -.282614587813D+01  .949949026108D-07
     .976406040282D+00  .303750000000D+03 -.201698190248D+01 -.818676958324D-08
     .150006248362D-09  .100000000000D+01  .172000000000D+04  .000000000000D+00
     .240000000000D+01  .000000000000D+00 -.884756445885D-08  .430000000000D+02
     .720600000000D+04  .400000000000D+01
15 12 12 23  4  0  0.0 -.102982390672D-03 -.102318153949D-11  .000000000000D+00
     .108000000000D+03  .738125000000D+02  .499913680554D-08 -.124978363080D+01
     .364147126675D-05  .512657465879D-02  .446848571301D-05  .515368862534D+04
     .144000000000D+05  .335276126862D-07 -.292083683934D+01 -.614672899246D-07
     .943131852999D+00  .281062500000D+03  .867789238562D-01 -.841677916406D-08
     .206080012631D-09  .100000000000D+01  .172000000000D+04  .000000000000D+00
     .340000000000D+01  .000000000000D+00 -.102445483208D-07  .108000000000D+03
     .720600000000D+04  .400000000000D+01
16 12 12 23  4  0  0.0 -.251104123890D-03 -.341060513165D-12  .000000000000D+00
     .790000000000D+02 -.591250000000D+02  .388909056766D-08  .334259893186D+00
    -.312738120556D-05  .675001682248D-02  .949762761593D-05  .515355539322D+04
     .144000000000D+05  .838190317154D-07 -.753105623404D+00  .428408384323D-07
     .983242594401D+00  .205250000000D+03  .292507441709D-01 -.776746640330D-08
     .928610108910D-10  .100000000000D+01  .172000000000D+04  .000000000000D+00
     .340000000000D+01  .000000000000D+00 -.977888703346D-08  .790000000000D+02
     .720600000000D+04  .400000000000D+01
17 12 12 23  4  0  0.0  .667939893901D-04 -.363797880709D-11  .000000000000D+00
     .540000000000D+02 -.593750000000D+00  .468912389226D-08 -.611884329038D+00
    -.223517417908D-07  .791131262667D-02  .697188079357D-05  .515376883316D+04
     .144000000000D+05  .242143869400D-07  .284930225333D+00  .139698386192D-06
     .964524058721D+00  .248593750000D+03 -.227247765430D+01 -.815105380982D-08
     .228938107620D-09  .100000000000D+01  .172000000000D+04  .000000000000D+00
     .240000000000D+01  .000000000000D+00 -.107102096081D-07  .540000000000D+02
     .720600000000D+04  .400000000000D+01
18 12 12 23  4  0  0.0  .230737030506D-03  .181898940355D-11  .000000000000D+00
     .150000000000D+02  .538125000000D+02  .516271504780D-08  .872802059023D+00
     .282190740108D-05  .136239657877D-01  .942870974541D-05  .515375595093D+04
     .144000000000D+05 -.197440385818D-06  .234541993908D+01  .596046447754D-07
     .928210610852D+00  .181531250000D+03 -.213426397614D+01 -.846035240764D-08
    -.252153360342D-09  .100000000000D+01  .172000000000D+04  .000000000000D+00
     .240000000000D+01  .000000000000D+00 -.107102096081D-07  .150000000000D+02
     .720600000000D+04  .400000000000D+01
19 12 12 23  4  0  0.0 -.333351548761D-03 -.341060513165D-11  .000000000000D+00
     .680000000000D+02 -.359375000000D+01  .462304971143D-08 -.134927065484D+01
    -.191852450371D-06  .874548207503D-02  .693090260029D-05  .515364282799D+04
     .144000000000D+05  .558793544769D-07  .337313285561D+00 -.189989805222D-06
     .961781167783D+00  .247062500000D+03  .274150050764D+00 -.797533220460D-08
     .295012288446D-09  .100000000000D+01  .172000000000D+04  .000000000000D+00
     .240000000000D+01  .000000000000D+00 -.144354999065D-07  .680000000000D+02
     .720600000000D+04  .400000000000D+01
20 12 12 23  4  0  0.0  .773863866925D-04  .125055521494D-11  .000000000000D+00
     .730000000000D+02  .569062500000D+02  .503770984084D-08  .142384785298D+01
     .289082527161D-05  .541295076255D-02  .103171914816D-04  .515357562447D+04
     .144000000000D+05 -.931322574615D-07  .229184440459D+01 -.689178705215D-07
     .928804140123D+00  .161375000000D+03  .128138897234D+01 -.827927343640D-08
    -.150006248362D-09  .100000000000D+01  .172000000000D+04  .000000000000D+00
     .240000000000D+01  .000000000000D+00 -.791624188423D-08  .730000000000D+02
     .720600000000D+04  .400000000000D+01
21 12 12 23  4  0  0.0 -.270029529929D-03 -.238742359215D-11  .000000000000D+00
     .270000000000D+02 -.237500000000D+02  .526521931752D-08  .197992530832D+01
    -.153481960297D-05  .195736382157D-01  .744126737118D-05  .515375378036D+04
     .144000000000D+05 -.279396772385D-06  .129614045309D+01 -.381842255592D-06
     .931018550443D+00  .223406250000D+03 -.219470557912D+01 -.827034449304D-08
    -.230009580822D-09  .100000000000D+01  .172000000000D+04  .000000000000D+00
     .240000000000D+01  .000000000000D+00 -.111758708954D-07  .270000000000D+02
     .720600000000D+04  .400000000000D+01
22 12 12 23  4  0  0.0  .153970438987D-03  .909494701773D-12  .000000000000D+00
     .960000000000D+02  .551562500000D+02  .518557314279D-08  .190025800960D+00
     .286847352982D-05  .614770152606D-02  .945292413235D-05  .515366928864D+04
     .144000000000D+05 -.106170773506D-06  .234835716406D+01  .968575477600D-07
     .925950746205D+00  .180593750000D+03 -.202428484512D+01 -.835249077191D-08
    -.133576992589D-09  .100000000000D+01  .172000000000D+04  .000000000000D+00
     .340000000000D+01  .000000000000D+00 -.172294676304D-07  .960000000000D+02
     .720600000000D+04  .400000000000D+01
23 12 12 23  4  0  0.0  .131324399263D-03 -.375166564481D-11  .000000000000D+00
     .630000000000D+02  .806875000000D+02  .472983987396D-08 -.175621643886D+01
     .391341745853D-05  .813327101059D-02  .419840216637D-05  .515377515793D+04
     .144000000000D+05  .279396772385D-07 -.288201717874D+01 -.111758708954D-06
     .957979362611D+00  .297906250000D+03 -.291664430923D+01 -.828463080241D-08
     .291440711104D-09  .100000000000D+01  .172000000000D+04  .000000000000D+00
     .240000000000D+01  .000000000000D+00 -.204890966415D-07  .630000000000D+02
     .720600000000D+04  .400000000000D+01
24 12 12 23  4  0  0.0  .188639387488D-05 -.682121026330D-12  .000000000000D+00
     .400000000000D+02 -.428437500000D+02  .467269463649D-08 -.212113794367D+01
    -.229291617870D-05  .382098369300D-03  .420399010181D-05  .515371622276D+04
     .144000000000D+05 -.465661287308D-07 -.185537423464D+01 -.409781932831D-07
     .959202253870D+00  .298781250000D+03 -.219938849107D+00 -.828998816843D-08
    -.120719314158D-09  .100000000000D+01  .172000000000D+04  .000000000000D+00
     .240000000000D+01  .000000000000D+00  .419095158577D-08  .400000000000D+02
     .720600000000D+04  .400000000000D+01
25 12 12 23  4  0  0.0  .581033527851D-04  .227373675443D-11  .000000000000D+00
     .200000000000D+02 -.526250000000D+02  .418410285611D-08  .160107356547D+01
    -.274181365967D-05  .192670046818D-02  .891461968422D-05  .515361783218D+04
     .144000000000D+05 -.540167093277D-07 -.807882956802D+00  .447034835815D-07
     .971304942955D+00  .212093750000D+03  .618850338241D+00 -.785175562857D-08
     .896465912832D-10  .100000000000D+01  .172000000000D+04  .000000000000D+00
     .240000000000D+01  .000000000000D+00  .512227416039D-08  .200000000000D+02
     .720600000000D+04  .400000000000D+01
26 12 12 23  4  0  0.0 -.165159348398D-03  .135287336889D-10  .000000000000D+00
     .400000000000D+02  .708750000000D+02  .410552815458D-08 -.188497185717D+01
     .379048287868D-05  .209505156381D-01  .364147126675D-05  .515365797234D+04
     .144000000000D+05  .361353158951D-06 -.280479383974D+01  .298023223877D-07
     .981150084656D+00  .313718750000D+03  .121319134197D+01 -.775067998979D-08
     .271082720255D-09  .100000000000D+01  .172000000000D+04  .000000000000D+00
     .240000000000D+01  .000000000000D+00 -.605359673500D-08  .400000000000D+02
     .720600000000D+04  .400000000000D+01
27 12 12 23  4  0  0.0 -.202293507755D-03  .363797880709D-11  .000000000000D+00
     .490000000000D+02 -.544062500000D+02  .534486549224D-08  .235440416227D+00
    -.271201133728D-05  .566895946395D-02  .938214361668D-05  .515362266731D+04
     .144000000000D+05 -.298023223877D-07 -.791992445116D+00  .763684511185D-07
     .976179388921D+00  .203875000000D+03  .856831743693D+00 -.788818571745D-08
     .750031241812D-10  .100000000000D+01  .172000000000D+04  .000000000000D+00
     .240000000000D+01  .630000000000D+02 -.190921127796D-07  .490000000000D+02
     .720600000000D+04  .400000000000D+01
28 12 12 23  4  0  0.0  .216544140130D-03  .363797880709D-11  .000000000000D+00
     .123000000000D+03 -.540312500000D+02  .406124059554D-08  .119318436606D+00
    -.268407166004D-05  .185345351929D-01  .923685729504D-05  .515363643456D+04
     .144000000000D+05 -.214204192162D-06 -.746657896818D+00  .875443220139D-07
     .981654509051D+00  .217375000000D+03 -.180244727318D+01 -.806426448041D-08
     .628597612185D-10  .100000000000D+01  .172000000000D+04  .000000000000D+00
     .340000000000D+01  .000000000000D+00 -.107102096081D-07  .123000000000D+03
     .720600000000D+04  .400000000000D+01
